{
  "norad_id": 67342,
  "name": "STARLINK-36432",
  "history": [
    {
      "epoch": "2026-03-28T10:16:10.484832",
      "apogee_km": 483.8479164393393,
      "perigee_km": 482.16817090974746,
      "latitude_deg": -32.14035816530829,
      "longitude_deg": -124.7216835198924,
      "semi_major_axis_km": 6861.145043674544,
      "eccentricity": 0.00012241,
      "inclination_deg": 43.0038,
      "raan_deg": 120.8963,
      "arg_perigee_deg": 267.2972,
      "mean_anomaly_deg": 92.774,
      "mean_motion_rev_day": 15.2759371
    },
    {
      "epoch": "2026-03-29T01:57:44.559936",
      "apogee_km": 483.7745970881697,
      "perigee_km": 482.28297964577905,
      "latitude_deg": 40.94689830095068,
      "longitude_deg": -61.95048895990476,
      "semi_major_axis_km": 6861.165788366974,
      "eccentricity": 0.0001087,
      "inclination_deg": 43.002,
      "raan_deg": 117.2015,
      "arg_perigee_deg": 247.4753,
      "mean_anomaly_deg": 112.5984,
      "mean_motion_rev_day": 15.27586782
    }
  ]
}